NORAD_CAT_ID,OBJECT_NAME,OBJECT_TYPE,EPOCH,MEAN_MOTION,ECCENTRICITY,INCLINATION,RA_OF_ASC_NODE,ARG_OF_PERICENTER,MEAN_ANOMALY,BSTAR,MEAN_MOTION_DOT,MEAN_MOTION_DDOT,TLE_LINE0,TLE_LINE1,TLE_LINE2,SEMIMAJOR_AXIS,PERIOD,APOGEE,PERIGEE,DECAYED
52628.0,STARLINK-4001,PAYLOAD,2024-03-21 22:05:08,15.08853564,0.0001067,53.2166,266.3076,93.0664,267.045,3.9638e-05,3.43e-06,0.0,0 STARLINK-4001,1 52628U 22052AG  24081.92024282  .00000343  00000-0  39638-4 0  9991,2 52628  53.2166 266.3076 0001067  93.0664 267.0450 15.08853564102428,6917.839,95.437,540.442,538.966,0.0
52628.0,STARLINK-4001,PAYLOAD,2024-03-22 12:23:37,15.08841099,0.0001435,53.2178,263.6291,120.3243,239.7892,7.5445e-05,9.13e-06,0.0,0 STARLINK-4001,1 52628U 22052AG  24082.51640864  .00000913  00000-0  75445-4 0  9996,2 52628  53.2178 263.6291 0001435 120.3243 239.7892 15.08841099102893,6917.877,95.437,540.735,538.749,0.0
52628.0,STARLINK-4001,PAYLOAD,2024-03-22 17:09:47,15.08840689,0.0001356,53.2174,262.7371,118.1207,241.9922,7.3079e-05,8.75e-06,0.0,0 STARLINK-4001,1 52628U 22052AG  24082.71512869  .00000875  00000-0  73079-4 0  9999,2 52628  53.2174 262.7371 0001356 118.1207 241.9922 15.08840689102540,6917.878,95.438,540.681,538.805,0.0
52628.0,STARLINK-4001,PAYLOAD,2024-03-23 18:35:58,15.08833059,0.000118,53.2169,257.9841,90.4863,269.6265,7.4019e-06,-1.7e-06,0.0,0 STARLINK-4001,1 52628U 22052AG  24083.77497845 -.00000170  00000-0  74019-5 0  9997,2 52628  53.2169 257.9841 0001180  90.4863 269.6265 15.08833059103087,6917.902,95.438,540.583,538.95,0.0
52628.0,STARLINK-4001,PAYLOAD,2024-03-24 04:08:15,15.08849039,0.0001276,53.2184,256.2001,90.1479,269.9659,8.7565e-05,1.106e-05,0.0,0 STARLINK-4001,1 52628U 22052AG  24084.17240631  .00001106  00000-0  87565-4 0  9999,2 52628  53.2184 256.2001 0001276  90.1479 269.9659 15.08849039103142,6917.853,95.437,540.6,538.835,0.0
52628.0,STARLINK-4001,PAYLOAD,2024-03-24 18:26:45,15.08837121,0.0001328,53.2179,253.5255,92.0018,268.1126,5.7401e-05,6.26e-06,0.0,0 STARLINK-4001,1 52628U 22052AG  24084.76857673  .00000626  00000-0  57401-4 0  9996,2 52628  53.2179 253.5255 0001328  92.0018 268.1126 15.08837121103234,6917.889,95.438,540.673,538.835,0.0
52628.0,STARLINK-4001,PAYLOAD,2024-03-25 03:59:02,15.08857635,9.04e-05,53.216,251.7378,66.3591,293.7496,0.00024117,3.554e-05,0.0,0 STARLINK-4001,1 52628U 22052AG  24085.16599547  .00003554  00000-0  24117-3 0  9994,2 52628  53.2160 251.7378 0000904  66.3591 293.7496 15.08857635103291,6917.826,95.436,540.317,539.066,0.0
52628.0,STARLINK-4001,PAYLOAD,2024-03-25 10:20:38,15.08805508,0.0001509,53.2173,250.5506,98.628,261.4883,-0.00013048,-2.362e-05,0.0,0 STARLINK-4001,1 52628U 22052AG  24085.43100242 -.00002362  00000-0 -13048-3 0  9993,2 52628  53.2173 250.5506 0001509  98.6280 261.4883 15.08805508103339,6917.986,95.44,540.895,538.807,0.0
52628.0,STARLINK-4001,PAYLOAD,2024-03-25 19:52:56,15.0881696,0.0001582,53.2164,248.7664,104.9353,255.1814,-0.0001328,-2.4e-05,0.0,0 STARLINK-4001,1 52628U 22052AG  24085.82843067 -.00002400  00000-0 -13280-3 0  9996,2 52628  53.2164 248.7664 0001582 104.9353 255.1814 15.08816960103390,6917.951,95.439,540.91,538.721,0.0
52628.0,STARLINK-4001,PAYLOAD,2024-03-26 10:11:24,15.08826177,0.0001421,53.2161,246.0886,92.7228,267.3927,7.104e-05,8.42e-06,0.0,0 STARLINK-4001,1 52628U 22052AG  24086.42459225  .00000842  00000-0  71040-4 0  9997,2 52628  53.2161 246.0886 0001421  92.7228 267.3927 15.08826177103482,6917.923,95.438,540.771,538.805,0.0
52628.0,STARLINK-4001,PAYLOAD,2024-03-26 14:57:34,15.08832017,0.0001602,53.2165,245.1993,92.8978,267.2197,0.00013386,1.843e-05,0.0,0 STARLINK-4001,1 52628U 22052AG  24086.62331069  .00001843  00000-0  13386-3 0  9994,2 52628  53.2165 245.1993 0001602  92.8978 267.2197 15.08832017103139,6917.905,95.438,540.878,538.662,0.0
52628.0,STARLINK-4001,PAYLOAD,2024-03-26 18:08:20,15.08836999,0.0001562,53.216,244.6043,90.3187,269.7985,0.0002588,3.833e-05,0.0,0 STARLINK-4001,1 52628U 22052AG  24086.75579030  .00003833  00000-0  25880-3 0  9993,2 52628  53.2160 244.6043 0001562  90.3187 269.7985 15.08836999103533,6917.89,95.438,540.835,538.674,0.0
52628.0,STARLINK-4001,PAYLOAD,2024-03-27 03:40:38,15.08852678,0.000154,53.2156,242.8181,81.6172,278.4995,0.00055423,8.547e-05,0.0,0 STARLINK-4001,1 52628U 22052AG  24087.15322682  .00008547  00000-0  55423-3 0  9990,2 52628  53.2156 242.8181 0001540  81.6172 278.4995 15.08852678103590,6917.842,95.437,540.772,538.641,0.0
52628.0,STARLINK-4001,PAYLOAD,2024-03-27 14:48:20,15.08845607,0.0001508,53.2155,240.7331,95.2128,264.9037,0.0001743,2.488e-05,0.0,0 STARLINK-4001,1 52628U 22052AG  24087.61690902  .00002488  00000-0  17430-3 0  9998,2 52628  53.2155 240.7331 0001508  95.2128 264.9037 15.08845607103286,6917.863,95.437,540.771,538.685,0.0
52628.0,STARLINK-4001,PAYLOAD,2024-03-27 16:23:44,15.08840184,0.000147,53.2156,240.436,94.2751,265.8409,0.00039938,6.074e-05,0.0,0 STARLINK-4001,1 52628U 22052AG  24087.68315210  .00006074  00000-0  39938-3 0  9993,2 52628  53.2156 240.4360 0001470  94.2751 265.8409 15.08840184103676,6917.88,95.438,540.762,538.728,0.0
52628.0,STARLINK-4001,PAYLOAD,2024-03-28 09:52:58,15.08850213,0.0001388,53.2145,237.1662,91.8361,268.2791,0.00015081,2.114e-05,0.0,0 STARLINK-4001,1 52628U 22052AG  24088.41178416  .00002114  00000-0  15081-3 0  9994,2 52628  53.2145 237.1662 0001388  91.8361 268.2791 15.08850213103406,6917.849,95.437,540.674,538.754,0.0
52628.0,STARLINK-4001,PAYLOAD,2024-03-29 12:54:31,15.08844202,0.0001442,53.2151,232.1102,90.8171,269.2986,0.00010708,1.417e-05,0.0,0 STARLINK-4001,1 52628U 22052AG  24089.53786567  .00001417  00000-0  10708-3 0  9996,2 52628  53.2151 232.1102 0001442  90.8171 269.2986 15.08844202103954,6917.868,95.437,540.73,538.735,0.0
52628.0,STARLINK-4001,PAYLOAD,2024-03-29 16:05:18,15.08840483,0.0001621,53.2171,231.5161,99.8854,260.2321,0.00028745,4.29e-05,0.0,0 STARLINK-4001,1 52628U 22052AG  24089.67034812  .00004290  00000-0  28745-3 0  9992,2 52628  53.2171 231.5161 0001621  99.8854 260.2321 15.08840483103591,6917.879,95.438,540.865,538.623,0.0
52628.0,STARLINK-4001,PAYLOAD,2024-03-30 14:20:41,15.08841182,0.0001269,53.2168,227.3547,98.4566,261.657,0.0001012,1.323e-05,0.0,0 STARLINK-4001,1 52628U 22052AG  24090.59770491  .00001323  00000-0  10120-3 0  9997,2 52628  53.2168 227.3547 0001269  98.4566 261.6570 15.08841182103735,6917.877,95.437,540.62,538.864,0.0
52628.0,STARLINK-4001,PAYLOAD,2024-03-30 19:06:51,15.08842353,0.0001183,53.2175,226.4632,86.016,274.0968,0.00010811,1.433e-05,0.0,0 STARLINK-4001,1 52628U 22052AG  24090.79642408  .00001433  00000-0  10811-3 0  9994,2 52628  53.2175 226.4632 0001183  86.0160 274.0968 15.08842353104142,6917.873,95.437,540.557,538.92,0.0
52628.0,STARLINK-4001,PAYLOAD,2024-03-31 01:28:23,15.08849703,0.0001283,53.2195,225.276,89.7125,270.4014,0.00019442,2.808e-05,0.0,0 STARLINK-4001,1 52628U 22052AG  24091.06137793  .00002808  00000-0  19442-3 0  9997,2 52628  53.2195 225.2760 0001283  89.7125 270.4014 15.08849703104187,6917.851,95.437,540.603,538.828,0.0
52628.0,STARLINK-4001,PAYLOAD,2024-03-31 12:36:06,15.08834957,0.0001414,53.2188,223.1941,91.7145,268.4009,5.186e-05,5.37e-06,0.0,0 STARLINK-4001,1 52628U 22052AG  24091.52506992  .00000537  00000-0  51860-4 0  9997,2 52628  53.2188 223.1941 0001414  91.7145 268.4009 15.08834957104252,6917.896,95.438,540.739,538.783,0.0
52628.0,STARLINK-4001,PAYLOAD,2024-03-31 14:11:28,15.08836348,0.0001599,53.2204,222.9016,106.6097,253.5071,0.00011206,1.496e-05,0.0,0 STARLINK-4001,1 52628U 22052AG  24091.59130730  .00001496  00000-0  11206-3 0  9991,2 52628  53.2204 222.9016 0001599 106.6097 253.5071 15.08836348103885,6917.892,95.438,540.863,538.65,0.0
52628.0,STARLINK-4001,PAYLOAD,2024-03-31 18:57:37,15.08843645,0.0001255,53.2174,222.003,88.5685,271.5451,0.00011644,1.566e-05,0.0,0 STARLINK-4001,1 52628U 22052AG  24091.79002253  .00001566  00000-0  11644-3 0  9995,2 52628  53.2174 222.0030 0001255  88.5685 271.5451 15.08843645104294,6917.869,95.437,540.602,538.866,0.0
52628.0,STARLINK-4001,PAYLOAD,2024-04-01 01:19:09,15.08852157,0.0001282,53.2184,220.8156,94.0289,266.085,0.00019299,2.786e-05,0.0,0 STARLINK-4001,1 52628U 22052AG  24092.05497465  .00002786  00000-0  19299-3 0  9997,2 52628  53.2184 220.8156 0001282  94.0289 266.0850 15.08852157104337,6917.843,95.437,540.595,538.821,0.0
52628.0,STARLINK-4001,PAYLOAD,2024-04-01 12:26:53,15.08828216,0.0001427,53.2192,218.7351,101.3129,258.8023,-4.5797e-05,-1.016e-05,0.0,0 STARLINK-4001,1 52628U 22052AG  24092.51867792 -.00001016  00000-0 -45797-4 0  9992,2 52628  53.2192 218.7351 0001427 101.3129 258.8023 15.08828216104403,6917.916,95.438,540.769,538.794,0.0
52628.0,STARLINK-4001,PAYLOAD,2024-04-01 15:37:39,15.08830551,0.000146,53.2176,218.1412,102.7555,257.3601,-0.00012167,-2.223e-05,0.0,0 STARLINK-4001,1 52628U 22052AG  24092.65115015 -.00002223  00000-0 -12167-3 0  9996,2 52628  53.2176 218.1412 0001460 102.7555 257.3601 15.08830551104043,6917.909,95.438,540.784,538.764,0.0
52628.0,STARLINK-4001,PAYLOAD,2024-04-02 12:17:39,15.08841532,0.0001637,53.2184,214.2756,106.8001,253.317,0.00015669,2.207e-05,0.0,0 STARLINK-4001,1 52628U 22052AG  24093.51226706  .00002207  00000-0  15669-3 0  9992,2 52628  53.2184 214.2756 0001637 106.8001 253.3170 15.08841532104179,6917.876,95.437,540.873,538.608,0.0
52628.0,STARLINK-4001,PAYLOAD,2024-04-02 17:03:49,15.08845427,0.0001289,53.2164,213.3815,94.9026,265.2114,0.00025394,3.756e-05,0.0,0 STARLINK-4001,1 52628U 22052AG  24093.71098671  .00003756  00000-0  25394-3 0  9998,2 52628  53.2164 213.3815 0001289  94.9026 265.2114 15.08845427104582,6917.864,95.437,540.621,538.837,0.0
52628.0,STARLINK-4001,PAYLOAD,2024-04-03 13:43:49,15.08858967,0.0001201,53.215,209.5155,83.2695,276.8434,0.00050392,7.745e-05,0.0,0 STARLINK-4001,1 52628U 22052AG  24094.57210085  .00007745  00000-0  50392-3 0  9996,2 52628  53.2150 209.5155 0001201  83.2695 276.8434 15.08858967104337,6917.822,95.436,540.518,538.857,0.0
